{
  "type": "FeatureCollection",
  "features": [
    {
      "type": "Feature",
      "properties": {
        "norad_id": 66940,
        "name": "STARLINK-36121",
        "group": "last-30-days",
        "lat": 23.222719573625955,
        "lon": 143.27915946741967,
        "alt_km": 397.80966509337395,
        "timestamp": "2025-12-26T11:25:43.987184+00:00",
        "meta_object_name": "STARLINK-36121",
        "meta_object_id": "2025-286R",
        "meta_epoch": "2025-12-26T04:00:01.998720",
        "meta_mean_motion": 15.56898219,
        "meta_eccentricity": 0.0001529,
        "meta_inclination": 53.1594,
        "meta_ra_of_asc_node": 343.5401,
        "meta_arg_of_pericenter": 85.3391,
        "meta_mean_anomaly": 130.0548,
        "meta_ephemeris_type": 0,
        "meta_classification_type": "U",
        "meta_norad_cat_id": 66940,
        "meta_element_set_no": 999,
        "meta_rev_at_epoch": 414,
        "meta_bstar": -0.031713,
        "meta_mean_motion_dot": -0.02071006,
        "meta_mean_motion_ddot": 0,
        "tle_line1": "1 66940U 25286R   25360.16668980 -.02071006  00000+0 -31713-1 0  9991",
        "tle_line2": "2 66940  53.1594 343.5401 0001529  85.3391 130.0548 15.56898219  4144"
      },
      "geometry": {
        "type": "Point",
        "coordinates": [
          143.27915946741967,
          23.222719573625955
        ]
      }
    },
    {
      "type": "Feature",
      "properties": {
        "norad_id": 66941,
        "name": "STARLINK-36088",
        "group": "last-30-days",
        "lat": 5.661402777706998,
        "lon": 157.73638949034608,
        "alt_km": 395.18814272267537,
        "timestamp": "2025-12-26T11:25:43.987192+00:00",
        "meta_object_name": "STARLINK-36088",
        "meta_object_id": "2025-286S",
        "meta_epoch": "2025-12-26T04:00:01.998720",
        "meta_mean_motion": 15.58788359,
        "meta_eccentricity": 0.000159,
        "meta_inclination": 53.1593,
        "meta_ra_of_asc_node": 343.4988,
        "meta_arg_of_pericenter": 92.4861,
        "meta_mean_anomaly": 143.2056,
        "meta_ephemeris_type": 0,
        "meta_classification_type": "U",
        "meta_norad_cat_id": 66941,
        "meta_element_set_no": 999,
        "meta_rev_at_epoch": 414,
        "meta_bstar": -0.028793,
        "meta_mean_motion_dot": -0.01988307,
        "meta_mean_motion_ddot": 0,
        "tle_line1": "1 66941U 25286S   25360.16668980 -.01988307  00000+0 -28793-1 0  9996",
        "tle_line2": "2 66941  53.1593 343.4988 0001590  92.4861 143.2056 15.58788359  4147"
      },
      "geometry": {
        "type": "Point",
        "coordinates": [
          157.73638949034608,
          5.661402777706998
        ]
      }
    },
    {
      "type": "Feature",
      "properties": {
        "norad_id": 66942,
        "name": "STARLINK-36100",
        "group": "last-30-days",
        "lat": 21.762188809364876,
        "lon": 144.62460540311784,
        "alt_km": 398.09055720420565,
        "timestamp": "2025-12-26T11:25:43.987201+00:00",
        "meta_object_name": "STARLINK-36100",
        "meta_object_id": "2025-286T",
        "meta_epoch": "2025-12-26T04:00:01.998720",
        "meta_mean_motion": 15.56895574,
        "meta_eccentricity": 0.0001577,
        "meta_inclination": 53.1596,
        "meta_ra_of_asc_node": 343.5358,
        "meta_arg_of_pericenter": 84.062,
        "meta_mean_anomaly": 133.2525,
        "meta_ephemeris_type": 0,
        "meta_classification_type": "U",
        "meta_norad_cat_id": 66942,
        "meta_element_set_no": 999,
        "meta_rev_at_epoch": 408,
        "meta_bstar": -0.031711,
        "meta_mean_motion_dot": -0.02070698,
        "meta_mean_motion_ddot": 0,
        "tle_line1": "1 66942U 25286T   25360.16668980 -.02070698  00000+0 -31711-1 0  9997",
        "tle_line2": "2 66942  53.1596 343.5358 0001577  84.0620 133.2525 15.56895574  4087"
      },
      "geometry": {
        "type": "Point",
        "coordinates": [
          144.62460540311784,
          21.762188809364876
        ]
      }
    },
    {
      "type": "Feature",
      "properties": {
        "norad_id": 66943,
        "name": "STARLINK-36109",
        "group": "last-30-days",
        "lat": 20.292843860264085,
        "lon": 145.94097672999914,
        "alt_km": 398.30232867210543,
        "timestamp": "2025-12-26T11:25:43.987210+00:00",
        "meta_object_name": "STARLINK-36109",
        "meta_object_id": "2025-286U",
        "meta_epoch": "2025-12-26T04:00:01.998720",
        "meta_mean_motion": 15.5689971,
        "meta_eccentricity": 0.0001504,
        "meta_inclination": 53.1594,
        "meta_ra_of_asc_node": 343.5317,
        "meta_arg_of_pericenter": 89.0832,
        "meta_mean_anomaly": 130.1457,
        "meta_ephemeris_type": 0,
        "meta_classification_type": "U",
        "meta_norad_cat_id": 66943,
        "meta_element_set_no": 999,
        "meta_rev_at_epoch": 408,
        "meta_bstar": -0.03178,
        "meta_mean_motion_dot": -0.02074952,
        "meta_mean_motion_ddot": 0,
        "tle_line1": "1 66943U 25286U   25360.16668980 -.02074952  00000+0 -31780-1 0  9991",
        "tle_line2": "2 66943  53.1594 343.5317 0001504  89.0832 130.1457 15.56899710  4087"
      },
      "geometry": {
        "type": "Point",
        "coordinates": [
          145.94097672999914,
          20.292843860264085
        ]
      }
    },
    {
      "type": "Feature",
      "properties": {
        "norad_id": 66944,
        "name": "STARLINK-36112",
        "group": "last-30-days",
        "lat": 18.814531664069936,
        "lon": 147.23186875569638,
        "alt_km": 398.50527342554324,
        "timestamp": "2025-12-26T11:25:43.987219+00:00",
        "meta_object_name": "STARLINK-36112",
        "meta_object_id": "2025-286V",
        "meta_epoch": "2025-12-26T04:00:01.998720",
        "meta_mean_motion": 15.56896706,
        "meta_eccentricity": 0.0001573,
        "meta_inclination": 53.1596,
        "meta_ra_of_asc_node": 343.5274,
        "meta_arg_of_pericenter": 91.8806,
        "meta_mean_anomaly": 129.2644,
        "meta_ephemeris_type": 0,
        "meta_classification_type": "U",
        "meta_norad_cat_id": 66944,
        "meta_element_set_no": 999,
        "meta_rev_at_epoch": 414,
        "meta_bstar": -0.031701,
        "meta_mean_motion_dot": -0.0207019,
        "meta_mean_motion_ddot": 0,
        "tle_line1": "1 66944U 25286V   25360.16668980 -.02070190  00000+0 -31701-1 0  9995",
        "tle_line2": "2 66944  53.1596 343.5274 0001573  91.8806 129.2644 15.56896706  4146"
      },
      "geometry": {
        "type": "Point",
        "coordinates": [
          147.23186875569638,
          18.814531664069936
        ]
      }
    },
    {
      "type": "Feature",
      "properties": {
        "norad_id": 66945,
        "name": "STARLINK-36110",
        "group": "last-30-days",
        "lat": 17.32634941602079,
        "lon": 148.50066351445972,
        "alt_km": 398.80309370495615,
        "timestamp": "2025-12-26T11:25:43.987227+00:00",
        "meta_object_name": "STARLINK-36110",
        "meta_object_id": "2025-286W",
        "meta_epoch": "2025-12-26T04:00:01.998720",
        "meta_mean_motion": 15.56890832,
        "meta_eccentricity": 0.0001558,
        "meta_inclination": 53.1595,
        "meta_ra_of_asc_node": 343.5229,
        "meta_arg_of_pericenter": 89.865,
        "meta_mean_anomaly": 133.1986,
        "meta_ephemeris_type": 0,
        "meta_classification_type": "U",
        "meta_norad_cat_id": 66945,
        "meta_element_set_no": 999,
        "meta_rev_at_epoch": 414,
        "meta_bstar": -0.031528,
        "meta_mean_motion_dot": -0.02059703,
        "meta_mean_motion_ddot": 0,
        "tle_line1": "1 66945U 25286W   25360.16668980 -.02059703  00000+0 -31528-1 0  9990",
        "tle_line2": "2 66945  53.1595 343.5229 0001558  89.8650 133.1986 15.56890832  4140"
      },
      "geometry": {
        "type": "Point",
        "coordinates": [
          148.50066351445972,
          17.32634941602079
        ]
      }
    },
    {
      "type": "Feature",
      "properties": {
        "norad_id": 66946,
        "name": "STARLINK-36115",
        "group": "last-30-days",
        "lat": 15.830312465425465,
        "lon": 149.74988548340258,
        "alt_km": 399.08363260858914,
        "timestamp": "2025-12-26T11:25:43.987237+00:00",
        "meta_object_name": "STARLINK-36115",
        "meta_object_id": "2025-286X",
        "meta_epoch": "2025-12-26T04:00:01.998720",
        "meta_mean_motion": 15.56891309,
        "meta_eccentricity": 0.0001539,
        "meta_inclination": 53.1596,
        "meta_ra_of_asc_node": 343.5193,
        "meta_arg_of_pericenter": 89.6729,
        "meta_mean_anomaly": 135.3081,
        "meta_ephemeris_type": 0,
        "meta_classification_type": "U",
        "meta_norad_cat_id": 66946,
        "meta_element_set_no": 999,
        "meta_rev_at_epoch": 414,
        "meta_bstar": -0.031573,
        "meta_mean_motion_dot": -0.02062355,
        "meta_mean_motion_ddot": 0,
        "tle_line1": "1 66946U 25286X   25360.16668980 -.02062355  00000+0 -31573-1 0  9998",
        "tle_line2": "2 66946  53.1596 343.5193 0001539  89.6729 135.3081 15.56891309  4146"
      },
      "geometry": {
        "type": "Point",
        "coordinates": [
          149.74988548340258,
          15.830312465425465
        ]
      }
    }
  ]
}